{
  "type": "FeatureCollection",
  "source": "Natural Earth 10m map subunits v5.1.1",
  "sourceUrl": "https://github.com/nvkelso/natural-earth-vector/blob/ca96624a56bd078437bca8184e78163e5039ad19/geojson/ne_10m_admin_0_map_subunits.geojson",
  "license": "Public domain",
  "features": [
    {
      "type": "Feature",
      "properties": {
        "id": "sark",
        "name": "Sark",
        "sourceUnit": "GGS"
      },
      "geometry": {
        "type": "Polygon",
        "coordinates": [
          [
            [
              -2.363759,
              49.446845
            ],
            [
              -2.356353,
              49.440375
            ],
            [
              -2.3544,
              49.427802
            ],
            [
              -2.364654,
              49.417873
            ],
            [
              -2.373525,
              49.411566
            ],
            [
              -2.378082,
              49.412746
            ],
            [
              -2.374827,
              49.419176
            ],
            [
              -2.373118,
              49.424262
            ],
            [
              -2.375885,
              49.430406
            ],
            [
              -2.375478,
              49.435452
            ],
            [
              -2.372629,
              49.438056
            ],
            [
              -2.369862,
              49.442084
            ],
            [
              -2.366119,
              49.445746
            ],
            [
              -2.363759,
              49.446845
            ]
          ]
        ]
      }
    },
    {
      "type": "Feature",
      "properties": {
        "id": "alderney",
        "name": "Alderney",
        "sourceUnit": "GGA"
      },
      "geometry": {
        "type": "Polygon",
        "coordinates": [
          [
            [
              -2.174469,
              49.731391
            ],
            [
              -2.170318,
              49.728746
            ],
            [
              -2.170318,
              49.723212
            ],
            [
              -2.187896,
              49.710639
            ],
            [
              -2.200836,
              49.705715
            ],
            [
              -2.216868,
              49.70303
            ],
            [
              -2.226226,
              49.707831
            ],
            [
              -2.218495,
              49.718695
            ],
            [
              -2.204701,
              49.724107
            ],
            [
              -2.194814,
              49.724799
            ],
            [
              -2.178619,
              49.730902
            ],
            [
              -2.174469,
              49.731391
            ]
          ]
        ]
      }
    }
  ]
}
